start=new Date('2023-01-28T00:00:00.000Z').valueOf();
sats=[{"RCS_SIZE":"LARGE","MEAN_MOTION_DOT":"0.00000600","GP_ID":"223836108","CLASSIFICATION_TYPE":"U","OBJECT_ID":"2021-044AG","TIME_SYSTEM":"UTC","MEAN_ELEMENT_THEORY":"SGP4","OBJECT_TYPE":"PAYLOAD","MEAN_ANOMALY":"278.1315","NORAD_CAT_ID":"48668","MEAN_MOTION_DDOT":"0.0000000000000","ARG_OF_PERICENTER":"81.9806","ECCENTRICITY":"0.00011700","EPOCH":"2023-01-27T18:46:09.197760","CENTER_NAME":"EARTH","ELEMENT_SET_NO":"999","PERIOD":"95.592","TLE_LINE1":"1 48668U 21044AG  23027.78205090  .00000600  00000-0  59150-4 0  9998","APOAPSIS":"548.040","REV_AT_EPOCH":"9249","LAUNCH_DATE":"2021-05-26","INCLINATION":"53.0546","MEAN_MOTION":"15.06394854","DECAY_DATE":null,"FILE":"3763218","RA_OF_ASC_NODE":"175.3954","TLE_LINE2":"2 48668  53.0546 175.3954 0001170  81.9806 278.1315 15.06394854 92498","SITE":"AFETR","PERIAPSIS":"546.419","SEMIMAJOR_AXIS":"6925.364","OBJECT_NAME":"STARLINK-2738","COUNTRY_CODE":"US","REF_FRAME":"TEME","BSTAR":"0.00005915000000","EPHEMERIS_TYPE":"0"},{"CLASSIFICATION_TYPE":"U","RCS_SIZE":"LARGE","MEAN_MOTION_DOT":"0.00002454","GP_ID":"223836860","ARG_OF_PERICENTER":"94.0640","ECCENTRICITY":"0.00011480","MEAN_MOTION_DDOT":"0.0000000000000","EPOCH":"2023-01-27T18:40:50.418912","CENTER_NAME":"EARTH","TLE_LINE1":"1 48669U 21044AH  23027.77836133  .00002454  00000-0  18356-3 0  9997","PERIOD":"95.592","ELEMENT_SET_NO":"999","OBJECT_ID":"2021-044AH","TIME_SYSTEM":"UTC","MEAN_ELEMENT_THEORY":"SGP4","MEAN_ANOMALY":"266.0480","OBJECT_TYPE":"PAYLOAD","NORAD_CAT_ID":"48669","DECAY_DATE":null,"FILE":"3763218","TLE_LINE2":"2 48669  53.0544 175.4057 0001148  94.0640 266.0480 15.06400859 92489","SITE":"AFETR","RA_OF_ASC_NODE":"175.4057","REV_AT_EPOCH":"9248","APOAPSIS":"548.006","LAUNCH_DATE":"2021-05-26","MEAN_MOTION":"15.06400859","INCLINATION":"53.0544","COUNTRY_CODE":"US","BSTAR":"0.00018356000000","REF_FRAME":"TEME","EPHEMERIS_TYPE":"0","PERIAPSIS":"546.416","OBJECT_NAME":"STARLINK-2707","SEMIMAJOR_AXIS":"6925.346"},{"CLASSIFICATION_TYPE":"U","GP_ID":"223837611","MEAN_MOTION_DOT":"0.00001799","RCS_SIZE":"LARGE","TLE_LINE1":"1 48670U 21044AJ  23027.64198112  .00001799  00000-0  13963-3 0  9993","PERIOD":"95.592","ELEMENT_SET_NO":"999","CENTER_NAME":"EARTH","EPOCH":"2023-01-27T15:24:27.168768","ARG_OF_PERICENTER":"85.2955","ECCENTRICITY":"0.00009910","MEAN_MOTION_DDOT":"0.0000000000000","NORAD_CAT_ID":"48670","MEAN_ANOMALY":"274.8147","OBJECT_TYPE":"PAYLOAD","MEAN_ELEMENT_THEORY":"SGP4","TIME_SYSTEM":"UTC","OBJECT_ID":"2021-044AJ","TLE_LINE2":"2 48670  53.0544 176.0214 0000991  85.2955 274.8147 15.06401474 92468","SITE":"AFETR","RA_OF_ASC_NODE":"176.0214","FILE":"3763218","DECAY_DATE":null,"MEAN_MOTION":"15.06401474","INCLINATION":"53.0544","LAUNCH_DATE":"2021-05-26","REV_AT_EPOCH":"9246","APOAPSIS":"547.895","EPHEMERIS_TYPE":"0","BSTAR":"0.00013963000000","REF_FRAME":"TEME","COUNTRY_CODE":"US","OBJECT_NAME":"STARLINK-2763","SEMIMAJOR_AXIS":"6925.344","PERIAPSIS":"546.523"},{"CLASSIFICATION_TYPE":"U","RCS_SIZE":"LARGE","MEAN_MOTION_DOT":"0.00000639","GP_ID":"223836359","MEAN_MOTION_DDOT":"0.0000000000000","ECCENTRICITY":"0.00012650","ARG_OF_PERICENTER":"83.4596","EPOCH":"2023-01-27T15:19:08.944608","CENTER_NAME":"EARTH","ELEMENT_SET_NO":"999","PERIOD":"95.592","TLE_LINE1":"1 48671U 21044AK  23027.63829797  .00000639  00000-0  61822-4 0  9993","OBJECT_ID":"2021-044AK","TIME_SYSTEM":"UTC","MEAN_ELEMENT_THEORY":"SGP4","OBJECT_TYPE":"PAYLOAD","MEAN_ANOMALY":"276.6537","NORAD_CAT_ID":"48671","DECAY_DATE":null,"FILE":"3763218","RA_OF_ASC_NODE":"176.0484","SITE":"AFETR","TLE_LINE2":"2 48671  53.0549 176.0484 0001265  83.4596 276.6537 15.06395430 92466","REV_AT_EPOCH":"9246","APOAPSIS":"548.104","LAUNCH_DATE":"2021-05-26","MEAN_MOTION":"15.06395430","INCLINATION":"53.0549","COUNTRY_CODE":"US","REF_FRAME":"TEME","BSTAR":"0.00006182200000","EPHEMERIS_TYPE":"0","PERIAPSIS":"546.352","SEMIMAJOR_AXIS":"6925.363","OBJECT_NAME":"STARLINK-2745"},{"SEMIMAJOR_AXIS":"6925.345","OBJECT_NAME":"STARLINK-2705","PERIAPSIS":"546.449","COUNTRY_CODE":"US","EPHEMERIS_TYPE":"0","REF_FRAME":"TEME","BSTAR":"0.00015446000000","APOAPSIS":"547.971","REV_AT_EPOCH":"9247","INCLINATION":"53.0535","MEAN_MOTION":"15.06401048","LAUNCH_DATE":"2021-05-26","FILE":"3763218","DECAY_DATE":null,"RA_OF_ASC_NODE":"175.7580","TLE_LINE2":"2 48672  53.0535 175.7580 0001099  88.1000 272.0115 15.06401048 92478","SITE":"AFETR","TIME_SYSTEM":"UTC","MEAN_ELEMENT_THEORY":"SGP4","OBJECT_ID":"2021-044AL","NORAD_CAT_ID":"48672","OBJECT_TYPE":"PAYLOAD","MEAN_ANOMALY":"272.0115","EPOCH":"2023-01-27T16:49:22.327968","MEAN_MOTION_DDOT":"0.0000000000000","ARG_OF_PERICENTER":"88.1000","ECCENTRICITY":"0.00010990","PERIOD":"95.592","ELEMENT_SET_NO":"999","TLE_LINE1":"1 48672U 21044AL  23027.70095287  .00002020  00000-0  15446-3 0  9997","CENTER_NAME":"EARTH","MEAN_MOTION_DOT":"0.00002020","RCS_SIZE":"LARGE","GP_ID":"223836609","CLASSIFICATION_TYPE":"U"},{"REV_AT_EPOCH":"9247","APOAPSIS":"547.982","MEAN_MOTION":"15.06401328","INCLINATION":"53.0546","LAUNCH_DATE":"2021-05-26","FILE":"3763218","DECAY_DATE":null,"TLE_LINE2":"2 48673  53.0546 175.7718 0001116  89.4787 270.6330 15.06401328 92474","SITE":"AFETR","RA_OF_ASC_NODE":"175.7718","OBJECT_NAME":"STARLINK-2711","SEMIMAJOR_AXIS":"6925.344","PERIAPSIS":"546.437","COUNTRY_CODE":"US","EPHEMERIS_TYPE":"0","BSTAR":"0.00009370600000","REF_FRAME":"TEME","MEAN_MOTION_DOT":"0.00001115","RCS_SIZE":"LARGE","GP_ID":"223837361","CLASSIFICATION_TYPE":"U","MEAN_ELEMENT_THEORY":"SGP4","TIME_SYSTEM":"UTC","OBJECT_ID":"2021-044AM","NORAD_CAT_ID":"48673","MEAN_ANOMALY":"270.6330","OBJECT_TYPE":"PAYLOAD","EPOCH":"2023-01-27T16:44:04.213536","ECCENTRICITY":"0.00011160","ARG_OF_PERICENTER":"89.4787","MEAN_MOTION_DDOT":"0.0000000000000","TLE_LINE1":"1 48673U 21044AM  23027.69727099  .00001115  00000-0  93706-4 0  9999","PERIOD":"95.592","ELEMENT_SET_NO":"999","CENTER_NAME":"EARTH"},{"GP_ID":"223837111","MEAN_MOTION_DOT":"-0.00000020","RCS_SIZE":"LARGE","CLASSIFICATION_TYPE":"U","NORAD_CAT_ID":"48674","MEAN_ANOMALY":"279.9046","OBJECT_TYPE":"PAYLOAD","TIME_SYSTEM":"UTC","MEAN_ELEMENT_THEORY":"SGP4","OBJECT_ID":"2021-044AN","TLE_LINE1":"1 48674U 21044AN  23027.69264061 -.00000020  00000-0  17544-4 0  9996","PERIOD":"95.592","ELEMENT_SET_NO":"999","CENTER_NAME":"EARTH","EPOCH":"2023-01-27T16:37:24.148704","ECCENTRICITY":"0.00011980","ARG_OF_PERICENTER":"80.2078","MEAN_MOTION_DDOT":"0.0000000000000","MEAN_MOTION":"15.06395065","INCLINATION":"53.0542","LAUNCH_DATE":"2021-05-26","APOAPSIS":"548.058","REV_AT_EPOCH":"9247","TLE_LINE2":"2 48674  53.0542 175.7947 0001198  80.2078 279.9046 15.06395065 92473","SITE":"AFETR","RA_OF_ASC_NODE":"175.7947","FILE":"3763218","DECAY_DATE":null,"OBJECT_NAME":"STARLINK-2712","SEMIMAJOR_AXIS":"6925.364","PERIAPSIS":"546.399","EPHEMERIS_TYPE":"0","BSTAR":"0.00001754400000","REF_FRAME":"TEME","COUNTRY_CODE":"US"},{"CLASSIFICATION_TYPE":"U","RCS_SIZE":"MEDIUM","MEAN_MOTION_DOT":"0.00001348","GP_ID":"223835859","ARG_OF_PERICENTER":"85.6437","ECCENTRICITY":"0.00012360","MEAN_MOTION_DDOT":"0.0000000000000","EPOCH":"2023-01-27T16:33:27.144864","CENTER_NAME":"EARTH","TLE_LINE1":"1 48675U 21044AP  23027.68989751  .00001348  00000-0  10938-3 0  9998","PERIOD":"95.593","ELEMENT_SET_NO":"999","OBJECT_ID":"2021-044AP","TIME_SYSTEM":"UTC","MEAN_ELEMENT_THEORY":"SGP4","MEAN_ANOMALY":"274.4693","OBJECT_TYPE":"PAYLOAD","NORAD_CAT_ID":"48675","DECAY_DATE":null,"FILE":"3763218","TLE_LINE2":"2 48675  53.0533 175.8116 0001236  85.6437 274.4693 15.06393247 92472","SITE":"AFETR","RA_OF_ASC_NODE":"175.8116","REV_AT_EPOCH":"9247","APOAPSIS":"548.090","LAUNCH_DATE":"2021-05-26","INCLINATION":"53.0533","MEAN_MOTION":"15.06393247","COUNTRY_CODE":"US","BSTAR":"0.00010938000000","REF_FRAME":"TEME","EPHEMERIS_TYPE":"0","PERIAPSIS":"546.378","OBJECT_NAME":"STARLINK-2737","SEMIMAJOR_AXIS":"6925.369"},{"EPOCH":"2023-01-27T14:52:36.223680","MEAN_MOTION_DDOT":"0.0000000000000","ECCENTRICITY":"0.00011680","ARG_OF_PERICENTER":"83.0555","PERIOD":"95.592","ELEMENT_SET_NO":"999","TLE_LINE1":"1 48676U 21044AQ  23027.61986370  .00001387  00000-0  11198-3 0  9998","CENTER_NAME":"EARTH","TIME_SYSTEM":"UTC","MEAN_ELEMENT_THEORY":"SGP4","OBJECT_ID":"2021-044AQ","NORAD_CAT_ID":"48676","OBJECT_TYPE":"PAYLOAD","MEAN_ANOMALY":"277.0567","CLASSIFICATION_TYPE":"U","MEAN_MOTION_DOT":"0.00001387","RCS_SIZE":"LARGE","GP_ID":"223836109","COUNTRY_CODE":"US","EPHEMERIS_TYPE":"0","REF_FRAME":"TEME","BSTAR":"0.00011198000000","SEMIMAJOR_AXIS":"6925.361","OBJECT_NAME":"STARLINK-2746","PERIAPSIS":"546.417","FILE":"3763218","DECAY_DATE":null,"RA_OF_ASC_NODE":"176.1236","SITE":"AFETR","TLE_LINE2":"2 48676  53.0532 176.1236 0001168  83.0555 277.0567 15.06395980 92460","APOAPSIS":"548.035","REV_AT_EPOCH":"9246","INCLINATION":"53.0532","MEAN_MOTION":"15.06395980","LAUNCH_DATE":"2021-05-26"},{"OBJECT_ID":"2021-044AR","TIME_SYSTEM":"UTC","MEAN_ELEMENT_THEORY":"SGP4","OBJECT_TYPE":"PAYLOAD","MEAN_ANOMALY":"279.8802","NORAD_CAT_ID":"48677","MEAN_MOTION_DDOT":"0.0000000000000","ECCENTRICITY":"0.00011860","ARG_OF_PERICENTER":"80.2321","EPOCH":"2023-01-27T16:21:28.612224","CENTER_NAME":"EARTH","ELEMENT_SET_NO":"999","PERIOD":"95.592","TLE_LINE1":"1 48677U 21044AR  23027.68158116  .00000618  00000-0  60380-4 0  9999","RCS_SIZE":"LARGE","MEAN_MOTION_DOT":"0.00000618","GP_ID":"223836861","CLASSIFICATION_TYPE":"U","PERIAPSIS":"546.401","SEMIMAJOR_AXIS":"6925.358","OBJECT_NAME":"STARLINK-2719","COUNTRY_CODE":"US","REF_FRAME":"TEME","BSTAR":"0.00006038000000","EPHEMERIS_TYPE":"0","REV_AT_EPOCH":"9247","APOAPSIS":"548.044","LAUNCH_DATE":"2021-05-26","MEAN_MOTION":"15.06397030","INCLINATION":"53.0522","DECAY_DATE":null,"FILE":"3763218","RA_OF_ASC_NODE":"175.8493","TLE_LINE2":"2 48677  53.0522 175.8493 0001186  80.2321 279.8802 15.06397030 92472","SITE":"AFETR"}];
